$$SOE
2461295.500000000, A.D. 2026-Sep-12 00:00:00.0000, 9.865231341276301E+07, -6.112444680013560E+08, 7.426945720451632E+07,
2461302.500000000, A.D. 2026-Sep-19 00:00:00.0000, 1.072194353041604E+08, -6.112443230187932E+08, 7.341292111699238E+07,
2461309.500000000, A.D. 2026-Sep-26 00:00:00.0000, 1.157652498662093E+08, -6.111226112646158E+08, 7.254177940153778E+07,
2461316.500000000, A.D. 2026-Oct-03 00:00:00.0000, 1.242881995527930E+08, -6.108801160590947E+08, 7.165629531095967E+07,
2461323.500000000, A.D. 2026-Oct-10 00:00:00.0000, 1.327867506068338E+08, -6.105176330039992E+08, 7.075673139641774E+07,
2461330.500000000, A.D. 2026-Oct-17 00:00:00.0000, 1.412593927671847E+08, -6.100359694069207E+08, 6.984334946744585E+07,
2461337.500000000, A.D. 2026-Oct-24 00:00:00.0000, 1.497046389602189E+08, -6.094359438182943E+08, 6.891641054706755E+07,
2461344.500000000, A.D. 2026-Oct-31 00:00:00.0000, 1.581210250755020E+08, -6.087183857473049E+08, 6.797617480748606E+07,
2461351.500000000, A.D. 2026-Nov-07 00:00:00.0000, 1.665071101652121E+08, -6.078841354822907E+08, 6.702290146139222E+07,
2461358.500000000, A.D. 2026-Nov-14 00:00:00.0000, 1.748614772686684E+08, -6.069340431280870E+08, 6.605684866315413E+07,
2461365.500000000, A.D. 2026-Nov-21 00:00:00.0000, 1.831827330504738E+08, -6.058689661781943E+08, 6.507827364194664E+07,
2461372.500000000, A.D. 2026-Nov-28 00:00:00.0000, 1.914695052543801E+08, -6.046897686291360E+08, 6.408743291261259E+07,
2461379.500000000, A.D. 2026-Dec-05 00:00:00.0000, 1.997204415929386E+08, -6.033973222926317E+08, 6.308458217874727E+07,
2461386.500000000, A.D. 2026-Dec-12 00:00:00.0000, 2.079342102384968E+08, -6.019925071944022E+08, 6.206997616736442E+07,
2461393.500000000, A.D. 2026-Dec-19 00:00:00.0000, 2.161095000286795E+08, -6.004762110530909E+08, 6.104386856900814E+07,
2461400.500000000, A.D. 2026-Dec-26 00:00:00.0000, 2.242450202441937E+08, -5.988493287071259E+08, 6.000651202559558E+07,
2461407.500000000, A.D. 2027-Jan-02 00:00:00.0000, 2.323395002347862E+08, -5.971127616802156E+08, 5.895815812518364E+07,
2461414.500000000, A.D. 2027-Jan-09 00:00:00.0000, 2.403916890099216E+08, -5.952674178651201E+08, 5.789905739461774E+07,
2461421.500000000, A.D. 2027-Jan-16 00:00:00.0000, 2.484003548287086E+08, -5.933142113166775E+08, 5.682945928751704E+07,
2461428.500000000, A.D. 2027-Jan-23 00:00:00.0000, 2.563642848339507E+08, -5.912540621934904E+08, 5.574961216006258E+07,
2461435.500000000, A.D. 2027-Jan-30 00:00:00.0000, 2.642822849168339E+08, -5.890878968958881E+08, 5.465976321336353E+07,
2461442.500000000, A.D. 2027-Feb-06 00:00:00.0000, 2.721531802357662E+08, -5.868166480601317E+08, 5.356015839112717E+07,
2461449.500000000, A.D. 2027-Feb-13 00:00:00.0000, 2.799758159277905E+08, -5.844412531893449E+08, 5.245104237441120E+07,
2461456.500000000, A.D. 2027-Feb-20 00:00:00.0000, 2.877490556474009E+08, -5.819626527121277E+08, 5.133265882540712E+07,
2461463.500000000, A.D. 2027-Feb-27 00:00:00.0000, 2.954717793277218E+08, -5.793817906819824E+08, 5.020525048925450E+07,
2461470.500000000, A.D. 2027-Mar-06 00:00:00.0000, 3.031428831819173E+08, -5.766996161945263E+08, 4.906905903390223E+07,
2461477.500000000, A.D. 2027-Mar-13 00:00:00.0000, 3.107612803446742E+08, -5.739170834730109E+08, 4.792432494208446E+07,
2461484.500000000, A.D. 2027-Mar-20 00:00:00.0000, 3.183259010243472E+08, -5.710351514567876E+08, 4.677128749061084E+07,
2461491.500000000, A.D. 2027-Mar-27 00:00:00.0000, 3.258356923677299E+08, -5.680547834415067E+08, 4.561018475339875E+07,
2461498.500000000, A.D. 2027-Apr-03 00:00:00.0000, 3.332896182402450E+08, -5.649769468185086E+08, 4.444125360556057E+07,
2461505.500000000, A.D. 2027-Apr-10 00:00:00.0000, 3.406866589826406E+08, -5.618026128899070E+08, 4.326472972463983E+07,
2461512.500000000, A.D. 2027-Apr-17 00:00:00.0000, 3.480258111661524E+08, -5.585327567730668E+08, 4.208084758562964E+07,
2461519.500000000, A.D. 2027-Apr-24 00:00:00.0000, 3.553060874254223E+08, -5.551683574559398E+08, 4.088984043728048E+07,
2461526.500000000, A.D. 2027-May-01 00:00:00.0000, 3.625265166691812E+08, -5.517103979748898E+08, 3.969194023441410E+07,
2461533.500000000, A.D. 2027-May-08 00:00:00.0000, 3.696861449766701E+08, -5.481598649664738E+08, 3.848737755924094E+07,
2461540.500000000, A.D. 2027-May-15 00:00:00.0000, 3.767840356833461E+08, -5.445177466400006E+08, 3.727638174697864E+07,
2461547.500000000, A.D. 2027-May-22 00:00:00.0000, 3.838192670920072E+08, -5.407850317625816E+08, 3.605918114743745E+07,
2461554.500000000, A.D. 2027-May-29 00:00:00.0000, 3.907909311651506E+08, -5.369627111246141E+08, 3.483600309477976E+07,
2461561.500000000, A.D. 2027-Jun-05 00:00:00.0000, 3.976981340835832E+08, -5.330517783537456E+08, 3.360707376029670E+07,
2461568.500000000, A.D. 2027-Jun-12 00:00:00.0000, 4.045399966638910E+08, -5.290532296455464E+08, 3.237261810772553E+07,
2461575.500000000, A.D. 2027-Jun-19 00:00:00.0000, 4.113156543037241E+08, -5.249680633458297E+08, 3.113285990517700E+07,
2461582.500000000, A.D. 2027-Jun-26 00:00:00.0000, 4.180242567342566E+08, -5.207972796457438E+08, 2.988802174682614E+07,
2461589.500000000, A.D. 2027-Jul-03 00:00:00.0000, 4.246649677118813E+08, -5.165418803811218E+08, 2.863832507309183E+07,
2461596.500000000, A.D. 2027-Jul-10 00:00:00.0000, 4.312369646858883E+08, -5.122028689271186E+08, 2.738399018682161E+07,
2461603.500000000, A.D. 2027-Jul-17 00:00:00.0000, 4.377394384783493E+08, -5.077812502266892E+08, 2.612523625916246E+07,
2461610.500000000, A.D. 2027-Jul-24 00:00:00.0000, 4.441715931325490E+08, -5.032780310153258E+08, 2.486228130581996E+07,
2461617.500000000, A.D. 2027-Jul-31 00:00:00.0000, 4.505326463414601E+08, -4.986942200061753E+08, 2.359534211540946E+07,
2461624.500000000, A.D. 2027-Aug-07 00:00:00.0000, 4.568218302557504E+08, -4.940308268836755E+08, 2.232463424262223E+07,
2461631.500000000, A.D. 2027-Aug-14 00:00:00.0000, 4.630383903702565E+08, -4.892888603590900E+08, 2.105037225668192E+07,
2461638.500000000, A.D. 2027-Aug-21 00:00:00.0000, 4.691815831068538E+08, -4.844693286518482E+08, 1.977276991343528E+07,
2461645.500000000, A.D. 2027-Aug-28 00:00:00.0000, 4.752506755246896E+08, -4.795732411929131E+08, 1.849204003462583E+07,
2461652.500000000, A.D. 2027-Sep-04 00:00:00.0000, 4.812449459769039E+08, -4.746016090476023E+08, 1.720839440704888E+07,
2461659.500000000, A.D. 2027-Sep-11 00:00:00.0000, 4.871636843187729E+08, -4.695554447191554E+08, 1.592204377533299E+07,
2461666.500000000, A.D. 2027-Sep-18 00:00:00.0000, 4.930061918005865E+08, -4.644357619831181E+08, 1.463319786275396E+07,
2461673.500000000, A.D. 2027-Sep-25 00:00:00.0000, 4.987717808741912E+08, -4.592435758299139E+08, 1.334206539247483E+07,
2461680.500000000, A.D. 2027-Oct-02 00:00:00.0000, 5.044597749883018E+08, -4.539799024876826E+08, 1.204885410429904E+07,
2461687.500000000, A.D. 2027-Oct-09 00:00:00.0000, 5.100695083950728E+08, -4.486457595294387E+08, 1.075377076423195E+07,
2461694.500000000, A.D. 2027-Oct-16 00:00:00.0000, 5.156003260311211E+08, -4.432421661188940E+08, 9.457021156316876E+06,
2461701.500000000, A.D. 2027-Oct-23 00:00:00.0000, 5.210515837329704E+08, -4.377701434000202E+08, 8.158810032220930E+06,
2461708.500000000, A.D. 2027-Oct-30 00:00:00.0000, 5.264226491619111E+08, -4.322307144194943E+08, 6.859341033931732E+06,
2461715.500000000, A.D. 2027-Nov-06 00:00:00.0000, 5.317129022752591E+08, -4.266249024537126E+08, 5.558816788390279E+06,
2461722.500000000, A.D. 2027-Nov-13 00:00:00.0000, 5.369217333586538E+08, -4.209537298166507E+08, 4.257439186416328E+06,
2461729.500000000, A.D. 2027-Nov-20 00:00:00.0000, 5.420485415208704E+08, -4.152182193341561E+08, 2.955409401070565E+06,
2461736.500000000, A.D. 2027-Nov-27 00:00:00.0000, 5.470927352684836E+08, -4.094193955197268E+08, 1.652927739339590E+06,
2461743.500000000, A.D. 2027-Dec-04 00:00:00.0000, 5.520537331367854E+08, -4.035582845375899E+08, 3.501935874516964E+05,
2461750.500000000, A.D. 2027-Dec-11 00:00:00.0000, 5.569309638262556E+08, -3.976359139168032E+08, -9.525945784239173E+05,
2461757.500000000, A.D. 2027-Dec-18 00:00:00.0000, 5.617238661194257E+08, -3.916533123551073E+08, -2.255239168967277E+06,
2461764.500000000, A.D. 2027-Dec-25 00:00:00.0000, 5.664318887301280E+08, -3.856115096142714E+08, -3.557543460032076E+06,
2461771.500000000, A.D. 2028-Jan-01 00:00:00.0000, 5.710544901267011E+08, -3.795115364920395E+08, -4.859311575010389E+06,
$$EOE